{"type": "FeatureCollection", "features": [ {"type": "Feature", "properties": {"norad_id": 33867, "name": "IRIDIUM 33 DEB", "group": "iridium-33-debris", "lat": 44.06532538785907, "lon": 161.16655079268, "alt_km": 268.69491954052774, "timestamp": "2025-12-22T23:36:21.100352+00:00", "meta": {"OBJECT_NAME": "IRIDIUM 33 DEB", "OBJECT_ID": "1997-051AL", "EPOCH": "2025-12-22T11:00:02.746368", "MEAN_MOTION": 15.94011051, "ECCENTRICITY": 0.0013656, "INCLINATION": 86.3662, "RA_OF_ASC_NODE": 344.9772, "ARG_OF_PERICENTER": 104.8485, "MEAN_ANOMALY": 255.4311, "EPHEMERIS_TYPE": 0, "CLASSIFICATION_TYPE": "U", "NORAD_CAT_ID": 33867, "ELEMENT_SET_NO": 999, "REV_AT_EPOCH": 89664, "BSTAR": 0.0093592392, "MEAN_MOTION_DOT": 0.03057152, "MEAN_MOTION_DDOT": 0.0088726237}, "tle": {"line1": "1 33867U 97051AL  25356.45836512  .03057152  88726-2  93592-2 0  9990", "line2": "2 33867  86.3662 344.9772 0013656 104.8485 255.4311 15.94011051896648"}}, "geometry": {"type": "Point", "coordinates": [161.16655079268, 44.06532538785907]}}, {"type": "Feature", "properties": {"norad_id": 33870, "name": "IRIDIUM 33 DEB", "group": "iridium-33-debris", "lat": -27.083380977817903, "lon": 52.01154257958418, "alt_km": 760.7520348616563, "timestamp": "2025-12-22T23:36:21.100363+00:00", "meta": {"OBJECT_NAME": "IRIDIUM 33 DEB", "OBJECT_ID": "1997-051AP", "EPOCH": "2025-12-22T14:22:05.127744", "MEAN_MOTION": 14.45897764, "ECCENTRICITY": 0.00224526, "INCLINATION": 86.3737, "RA_OF_ASC_NODE": 54.0349, "ARG_OF_PERICENTER": 146.7481, "MEAN_ANOMALY": 344.003, "EPHEMERIS_TYPE": 0, "CLASSIFICATION_TYPE": "U", "NORAD_CAT_ID": 33870, "ELEMENT_SET_NO": 999, "REV_AT_EPOCH": 88279, "BSTAR": 0.00065993411, "MEAN_MOTION_DOT": 2.372e-05, "MEAN_MOTION_DDOT": 0}, "tle": {"line1": "1 33870U 97051AP  25356.59867046  .00002372  00000+0  65993-3 0  9997", "line2": "2 33870  86.3737  54.0349 0022452 146.7481 344.0030 14.45897764882791"}}, "geometry": {"type": "Point", "coordinates": [52.01154257958418, -27.083380977817903]}}, {"type": "Feature", "properties": {"norad_id": 33881, "name": "IRIDIUM 33 DEB", "group": "iridium-33-debris", "lat": -59.012455496306586, "lon": -71.66988147728861, "alt_km": 716.5228818852802, "timestamp": "2025-12-22T23:36:21.100374+00:00", "meta": {"OBJECT_NAME": "IRIDIUM 33 DEB", "OBJECT_ID": "1997-051BA", "EPOCH": "2025-12-22T01:53:28.694112", "MEAN_MOTION": 14.56726775, "ECCENTRICITY": 0.00613657, "INCLINATION": 86.3868, "RA_OF_ASC_NODE": 102.6839, "ARG_OF_PERICENTER": 144.447, "MEAN_ANOMALY": 32.1992, "EPHEMERIS_TYPE": 0, "CLASSIFICATION_TYPE": "U", "NORAD_CAT_ID": 33881, "ELEMENT_SET_NO": 999, "REV_AT_EPOCH": 87636, "BSTAR": 0.0020421303, "MEAN_MOTION_DOT": 9.388e-05, "MEAN_MOTION_DDOT": 0}, "tle": {"line1": "1 33881U 97051BA  25356.07880433  .00009388  00000+0  20421-2 0  9997", "line2": "2 33881  86.3868 102.6839 0061365 144.4470  32.1992 14.56726775876364"}}, "geometry": {"type": "Point", "coordinates": [-71.66988147728861, -59.012455496306586]}}, {"type": "Feature", "properties": {"norad_id": 33884, "name": "IRIDIUM 33 DEB", "group": "iridium-33-debris", "lat": -53.18492559844674, "lon": -169.94026630536877, "alt_km": 639.957106671899, "timestamp": "2025-12-22T23:36:21.100385+00:00", "meta": {"OBJECT_NAME": "IRIDIUM 33 DEB", "OBJECT_ID": "1997-051BD", "EPOCH": "2025-12-21T19:42:17.168256", "MEAN_MOTION": 14.77591703, "ECCENTRICITY": 0.00089767, "INCLINATION": 86.3691, "RA_OF_ASC_NODE": 5.7181, "ARG_OF_PERICENTER": 287.8241, "MEAN_ANOMALY": 245.5748, "EPHEMERIS_TYPE": 0, "CLASSIFICATION_TYPE": "U", "NORAD_CAT_ID": 33884, "ELEMENT_SET_NO": 999, "REV_AT_EPOCH": 88981, "BSTAR": 0.0012315655, "MEAN_MOTION_DOT": 8.831e-05, "MEAN_MOTION_DDOT": 0}, "tle": {"line1": "1 33884U 97051BD  25355.82103204  .00008831  00000+0  12316-2 0  9992", "line2": "2 33884  86.3691   5.7181 0008976 287.8241 245.5748 14.77591703889818"}}, "geometry": {"type": "Point", "coordinates": [-169.94026630536877, -53.18492559844674]}}, {"type": "Feature", "properties": {"norad_id": 33886, "name": "IRIDIUM 33 DEB", "group": "iridium-33-debris", "lat": 71.57558296165854, "lon": 73.86498795444307, "alt_km": 771.1892143684963, "timestamp": "2025-12-22T23:36:21.100395+00:00", "meta": {"OBJECT_NAME": "IRIDIUM 33 DEB", "OBJECT_ID": "1997-051BF", "EPOCH": "2025-12-22T11:37:02.008992", "MEAN_MOTION": 14.36062756, "ECCENTRICITY": 0.00131922, "INCLINATION": 86.3822, "RA_OF_ASC_NODE": 63.1272, "ARG_OF_PERICENTER": 206.9179, "MEAN_ANOMALY": 164.3173, "EPHEMERIS_TYPE": 0, "CLASSIFICATION_TYPE": "U", "NORAD_CAT_ID": 33886, "ELEMENT_SET_NO": 999, "REV_AT_EPOCH": 88192, "BSTAR": 0.00017634481, "MEAN_MOTION_DOT": 5.33e-06, "MEAN_MOTION_DDOT": 0}, "tle": {"line1": "1 33886U 97051BF  25356.48405103  .00000533  00000+0  17634-3 0  9990", "line2": "2 33886  86.3822  63.1272 0013192 206.9179 164.3173 14.36062756881923"}}, "geometry": {"type": "Point", "coordinates": [73.86498795444307, 71.57558296165854]}}, {"type": "Feature", "properties": {"norad_id": 33887, "name": "IRIDIUM 33 DEB", "group": "iridium-33-debris", "lat": 51.08350405849857, "lon": 3.5692357736328146, "alt_km": 765.8285077959117, "timestamp": "2025-12-22T23:36:21.100406+00:00", "meta": {"OBJECT_NAME": "IRIDIUM 33 DEB", "OBJECT_ID": "1997-051BG", "EPOCH": "2025-12-22T12:15:13.500288", "MEAN_MOTION": 14.37229472, "ECCENTRICITY": 0.00054817, "INCLINATION": 86.3042, "RA_OF_ASC_NODE": 359.1812, "ARG_OF_PERICENTER": 188.3321, "MEAN_ANOMALY": 297.2235, "EPHEMERIS_TYPE": 0, "CLASSIFICATION_TYPE": "U", "NORAD_CAT_ID": 33887, "ELEMENT_SET_NO": 999, "REV_AT_EPOCH": 88305, "BSTAR": 0.00013931284, "MEAN_MOTION_DOT": 4.34e-06, "MEAN_MOTION_DDOT": 0}, "tle": {"line1": "1 33887U 97051BG  25356.51057292  .00000434  00000+0  13931-3 0  9993", "line2": "2 33887  86.3042 359.1812 0005481 188.3321 297.2235 14.37229472883052"}}, "geometry": {"type": "Point", "coordinates": [3.5692357736328146, 51.08350405849857]}}, {"type": "Feature", "properties": {"norad_id": 33953, "name": "IRIDIUM 33 DEB", "group": "iridium-33-debris", "lat": -35.202445603499356, "lon": -128.10956628713902, "alt_km": 724.5818854760528, "timestamp": "2025-12-22T23:36:21.100417+00:00", "meta": {"OBJECT_NAME": "IRIDIUM 33 DEB", "OBJECT_ID": "1997-051BN", "EPOCH": "2025-12-22T04:44:25.619136", "MEAN_MOTION": 14.55406947, "ECCENTRICITY": 0.00178347, "INCLINATION": 86.3836, "RA_OF_ASC_NODE": 49.6744, "ARG_OF_PERICENTER": 73.9809, "MEAN_ANOMALY": 345.1929, "EPHEMERIS_TYPE": 0, "CLASSIFICATION_TYPE": "U", "NORAD_CAT_ID": 33953, "ELEMENT_SET_NO": 999, "REV_AT_EPOCH": 88441, "BSTAR": 0.0010994661, "MEAN_MOTION_DOT": 4.805e-05, "MEAN_MOTION_DDOT": 0}, "tle": {"line1": "1 33953U 97051BN  25356.19751874  .00004805  00000+0  10995-2 0  9990", "line2": "2 33953  86.3836  49.6744 0017834  73.9809 345.1929 14.55406947884415"}}, "geometry": {"type": "Point", "coordinates": [-128.10956628713902, -35.202445603499356]}}, {"type": "Feature", "properties": {"norad_id": 33960, "name": "IRIDIUM 33 DEB", "group": "iridium-33-debris", "lat": 46.43584721883069, "lon": -71.36739573197667, "alt_km": 602.4266283403858, "timestamp": "2025-12-22T23:36:21.100428+00:00", "meta": {"OBJECT_NAME": "IRIDIUM 33 DEB", "OBJECT_ID": "1997-051BV", "EPOCH": "2025-12-22T06:09:23.968224", "MEAN_MOTION": 14.8563682, "ECCENTRICITY": 0.00072716, "INCLINATION": 86.2544, "RA_OF_ASC_NODE": 285.0259, "ARG_OF_PERICENTER": 45.0097, "MEAN_ANOMALY": 75.6646, "EPHEMERIS_TYPE": 0, "CLASSIFICATION_TYPE": "U", "NORAD_CAT_ID": 33960, "ELEMENT_SET_NO": 999, "REV_AT_EPOCH": 89008, "BSTAR": 0.0034646151, "MEAN_MOTION_DOT": 0.00030136, "MEAN_MOTION_DDOT": 0}, "tle": {"line1": "1 33960U 97051BV  25356.25652741  .00030136  00000+0  34646-2 0  9993", "line2": "2 33960  86.2544 285.0259 0007271  45.0097  75.6646 14.85636820890087"}}, "geometry": {"type": "Point", "coordinates": [-71.36739573197667, 46.43584721883069]}}, {"type": "Feature", "properties": {"norad_id": 33966, "name": "IRIDIUM 33 DEB", "group": "iridium-33-debris", "lat": 50.78703892029877, "lon": -142.80522196778256, "alt_km": 716.8877985927829, "timestamp": "2025-12-22T23:36:21.100438+00:00", "meta": {"OBJECT_NAME": "IRIDIUM 33 DEB", "OBJECT_ID": "1997-051CB", "EPOCH": "2025-12-22T13:37:15.049920", "MEAN_MOTION": 14.49630108, "ECCENTRICITY": 0.00085054, "INCLINATION": 86.3912, "RA_OF_ASC_NODE": 41.8093, "ARG_OF_PERICENTER": 157.4604, "MEAN_ANOMALY": 321.7914, "EPHEMERIS_TYPE": 0, "CLASSIFICATION_TYPE": "U", "NORAD_CAT_ID": 33966, "ELEMENT_SET_NO": 999, "REV_AT_EPOCH": 88584, "BSTAR": 0.00043607238, "MEAN_MOTION_DOT": 1.695e-05, "MEAN_MOTION_DDOT": 0}, "tle": {"line1": "1 33966U 97051CB  25356.56753530  .00001695  00000+0  43607-3 0  9997", "line2": "2 33966  86.3912  41.8093 0008505 157.4604 321.7914 14.49630108885844"}}, "geometry": {"type": "Point", "coordinates": [-142.80522196778256, 50.78703892029877]}}, {"type": "Feature", "properties": {"norad_id": 34071, "name": "IRIDIUM 33 DEB", "group": "iridium-33-debris", "lat": -10.970658077823975, "lon": -165.91458323216497, "alt_km": 734.177213472376, "timestamp": "2025-12-22T23:36:21.100448+00:00", "meta": {"OBJECT_NAME": "IRIDIUM 33 DEB", "OBJECT_ID": "1997-051CE", "EPOCH": "2025-12-22T12:47:17.503872", "MEAN_MOTION": 14.49505346, "ECCENTRICITY": 0.00099075, "INCLINATION": 86.3448, "RA_OF_ASC_NODE": 13.5713, "ARG_OF_PERICENTER": 81.226, "MEAN_ANOMALY": 279.0066, "EPHEMERIS_TYPE": 0, "CLASSIFICATION_TYPE": "U", "NORAD_CAT_ID": 34071, "ELEMENT_SET_NO": 999, "REV_AT_EPOCH": 88476, "BSTAR": 0.000513667, "MEAN_MOTION_DOT": 1.989e-05, "MEAN_MOTION_DDOT": 0}, "tle": {"line1": "1 34071U 97051CE  25356.53284148  .00001989  00000+0  51367-3 0  9994", "line2": "2 34071  86.3448  13.5713 0009907  81.2260 279.0066 14.49505346884768"}}, "geometry": {"type": "Point", "coordinates": [-165.91458323216497, -10.970658077823975]}}]}